{"type": "FeatureCollection", "features": [ {"type": "Feature", "properties": {"norad_id": 51444, "name": "CSG-2", "group": "resource", "lat": -63.68019969075982, "lon": -178.66587538273893, "alt_km": 630.6040687474424, "timestamp": "2025-12-09T16:56:36.238003+00:00", "meta": {"OBJECT_NAME": "CSG-2", "OBJECT_ID": "2022-008A", "EPOCH": "2025-12-09T12:22:28.765344", "MEAN_MOTION": 14.82156992, "ECCENTRICITY": 0.0001469, "INCLINATION": 97.8802, "RA_OF_ASC_NODE": 164.8868, "ARG_OF_PERICENTER": 83.6367, "MEAN_ANOMALY": 276.5014, "EPHEMERIS_TYPE": 0, "CLASSIFICATION_TYPE": "U", "NORAD_CAT_ID": 51444, "ELEMENT_SET_NO": 999, "REV_AT_EPOCH": 20849, "BSTAR": 5.6361e-05, "MEAN_MOTION_DOT": 3.97e-06, "MEAN_MOTION_DDOT": 0}, "tle": {"line1": "1 51444U 22008A   25343.51561071  .00000397  00000+0  56361-4 0  9996", "line2": "2 51444  97.8802 164.8868 0001469  83.6367 276.5014 14.82156992208493"}}, "geometry": {"type": "Point", "coordinates": [-178.66587538273893, -63.68019969075982]}}, {"type": "Feature", "properties": {"norad_id": 52912, "name": "GAOFEN-12 03", "group": "resource", "lat": -58.85918480474702, "lon": 37.92871871339122, "alt_km": 639.3112569500609, "timestamp": "2025-12-09T16:56:36.238012+00:00", "meta": {"OBJECT_NAME": "GAOFEN-12 03", "OBJECT_ID": "2022-069A", "EPOCH": "2025-12-09T12:37:02.168256", "MEAN_MOTION": 14.79597161, "ECCENTRICITY": 0.0002277, "INCLINATION": 97.8481, "RA_OF_ASC_NODE": 230.9487, "ARG_OF_PERICENTER": 66.4978, "MEAN_ANOMALY": 293.6473, "EPHEMERIS_TYPE": 0, "CLASSIFICATION_TYPE": "U", "NORAD_CAT_ID": 52912, "ELEMENT_SET_NO": 999, "REV_AT_EPOCH": 18656, "BSTAR": 0.00025289, "MEAN_MOTION_DOT": 1.844e-05, "MEAN_MOTION_DDOT": 0}, "tle": {"line1": "1 52912U 22069A   25343.52571954  .00001844  00000+0  25289-3 0  9998", "line2": "2 52912  97.8481 230.9487 0002277  66.4978 293.6473 14.79597161186569"}}, "geometry": {"type": "Point", "coordinates": [37.92871871339122, -58.85918480474702]}}, {"type": "Feature", "properties": {"norad_id": 54754, "name": "SWOT", "group": "resource", "lat": 0.16994891926204164, "lon": -68.87756283488, "alt_km": 896.0428572208466, "timestamp": "2025-12-09T16:56:36.238023+00:00", "meta": {"OBJECT_NAME": "SWOT", "OBJECT_ID": "2022-173A", "EPOCH": "2025-12-09T11:47:52.359936", "MEAN_MOTION": 14.00174004, "ECCENTRICITY": 3.34e-05, "INCLINATION": 77.6104, "RA_OF_ASC_NODE": 291.3744, "ARG_OF_PERICENTER": 121.9168, "MEAN_ANOMALY": 238.2016, "EPHEMERIS_TYPE": 0, "CLASSIFICATION_TYPE": "U", "NORAD_CAT_ID": 54754, "ELEMENT_SET_NO": 999, "REV_AT_EPOCH": 15260, "BSTAR": 6.7637e-05, "MEAN_MOTION_DOT": 9.7e-07, "MEAN_MOTION_DDOT": 0}, "tle": {"line1": "1 54754U 22173A   25343.49157824  .00000097  00000+0  67637-4 0  9995", "line2": "2 54754  77.6104 291.3744 0000334 121.9168 238.2016 14.00174004152607"}}, "geometry": {"type": "Point", "coordinates": [-68.87756283488, 0.16994891926204164]}}, {"type": "Feature", "properties": {"norad_id": 57654, "name": "GAOFEN-12 04", "group": "resource", "lat": 47.61188353163818, "lon": -109.25448763705063, "alt_km": 625.2198804450072, "timestamp": "2025-12-09T16:56:36.238033+00:00", "meta": {"OBJECT_NAME": "GAOFEN-12 04", "OBJECT_ID": "2023-123A", "EPOCH": "2025-12-09T13:28:49.299744", "MEAN_MOTION": 14.79686487, "ECCENTRICITY": 0.0001359, "INCLINATION": 97.9118, "RA_OF_ASC_NODE": 259.3671, "ARG_OF_PERICENTER": 71.9555, "MEAN_ANOMALY": 288.1805, "EPHEMERIS_TYPE": 0, "CLASSIFICATION_TYPE": "U", "NORAD_CAT_ID": 57654, "ELEMENT_SET_NO": 999, "REV_AT_EPOCH": 12458, "BSTAR": 0.00033982, "MEAN_MOTION_DOT": 2.5e-05, "MEAN_MOTION_DDOT": 0}, "tle": {"line1": "1 57654U 23123A   25343.56168171  .00002500  00000+0  33982-3 0  9994", "line2": "2 57654  97.9118 259.3671 0001359  71.9555 288.1805 14.79686487124589"}}, "geometry": {"type": "Point", "coordinates": [-109.25448763705063, 47.61188353163818]}}, {"type": "Feature", "properties": {"norad_id": 59065, "name": "PARS 1", "group": "resource", "lat": 42.02454075234615, "lon": 141.35996676008105, "alt_km": 435.39117572026225, "timestamp": "2025-12-09T16:56:36.238043+00:00", "meta": {"OBJECT_NAME": "PARS 1", "OBJECT_ID": "2024-039Q", "EPOCH": "2025-12-09T13:13:58.321344", "MEAN_MOTION": 15.40863119, "ECCENTRICITY": 0.001269, "INCLINATION": 97.4638, "RA_OF_ASC_NODE": 314.4169, "ARG_OF_PERICENTER": 81.7661, "MEAN_ANOMALY": 278.5023, "EPHEMERIS_TYPE": 0, "CLASSIFICATION_TYPE": "U", "NORAD_CAT_ID": 59065, "ELEMENT_SET_NO": 999, "REV_AT_EPOCH": 9939, "BSTAR": 0.00039705, "MEAN_MOTION_DOT": 0.00016271, "MEAN_MOTION_DDOT": 0}, "tle": {"line1": "1 59065U 24039Q   25343.55136946  .00016271  00000+0  39705-3 0  9992", "line2": "2 59065  97.4638 314.4169 0012690  81.7661 278.5023 15.40863119 99394"}}, "geometry": {"type": "Point", "coordinates": [141.35996676008105, 42.02454075234615]}}, {"type": "Feature", "properties": {"norad_id": 59371, "name": "RESURS-P 4", "group": "resource", "lat": 15.752278378119671, "lon": -71.96101853385672, "alt_km": 469.57994070279165, "timestamp": "2025-12-09T16:56:36.238054+00:00", "meta": {"OBJECT_NAME": "RESURS-P 4", "OBJECT_ID": "2024-061A", "EPOCH": "2025-12-09T12:10:17.952672", "MEAN_MOTION": 15.32046232, "ECCENTRICITY": 0.0001745, "INCLINATION": 97.2544, "RA_OF_ASC_NODE": 289.9034, "ARG_OF_PERICENTER": 52.9671, "MEAN_ANOMALY": 307.173, "EPHEMERIS_TYPE": 0, "CLASSIFICATION_TYPE": "U", "NORAD_CAT_ID": 59371, "ELEMENT_SET_NO": 999, "REV_AT_EPOCH": 9471, "BSTAR": 0.00020231, "MEAN_MOTION_DOT": 6.183e-05, "MEAN_MOTION_DDOT": 0}, "tle": {"line1": "1 59371U 24061A   25343.50715223  .00006183  00000+0  20231-3 0  9998", "line2": "2 59371  97.2544 289.9034 0001745  52.9671 307.1730 15.32046232 94710"}}, "geometry": {"type": "Point", "coordinates": [-71.96101853385672, 15.752278378119671]}}, {"type": "Feature", "properties": {"norad_id": 59625, "name": "LEGION 1", "group": "resource", "lat": 50.56208131841647, "lon": 49.126812390095466, "alt_km": 511.5585009964707, "timestamp": "2025-12-09T16:56:36.238064+00:00", "meta": {"OBJECT_NAME": "LEGION 1", "OBJECT_ID": "2024-081A", "EPOCH": "2025-12-09T11:58:03.443808", "MEAN_MOTION": 15.16429397, "ECCENTRICITY": 0.0004234, "INCLINATION": 97.5211, "RA_OF_ASC_NODE": 58.1646, "ARG_OF_PERICENTER": 331.3376, "MEAN_ANOMALY": 28.7624, "EPHEMERIS_TYPE": 0, "CLASSIFICATION_TYPE": "U", "NORAD_CAT_ID": 59625, "ELEMENT_SET_NO": 999, "REV_AT_EPOCH": 8878, "BSTAR": 0.00040622, "MEAN_MOTION_DOT": 7.835e-05, "MEAN_MOTION_DDOT": 0}, "tle": {"line1": "1 59625U 24081A   25343.49865097  .00007835  00000+0  40622-3 0  9996", "line2": "2 59625  97.5211  58.1646 0004234 331.3376  28.7624 15.16429397 88780"}}, "geometry": {"type": "Point", "coordinates": [49.126812390095466, 50.56208131841647]}}, {"type": "Feature", "properties": {"norad_id": 59626, "name": "LEGION 2", "group": "resource", "lat": -50.24979247596088, "lon": -130.68362695633957, "alt_km": 522.579353211765, "timestamp": "2025-12-09T16:56:36.238074+00:00", "meta": {"OBJECT_NAME": "LEGION 2", "OBJECT_ID": "2024-081B", "EPOCH": "2025-12-09T11:10:38.260704", "MEAN_MOTION": 15.16441411, "ECCENTRICITY": 0.0005829, "INCLINATION": 97.5215, "RA_OF_ASC_NODE": 58.2191, "ARG_OF_PERICENTER": 307.7092, "MEAN_ANOMALY": 52.3612, "EPHEMERIS_TYPE": 0, "CLASSIFICATION_TYPE": "U", "NORAD_CAT_ID": 59626, "ELEMENT_SET_NO": 999, "REV_AT_EPOCH": 8878, "BSTAR": 0.0003691, "MEAN_MOTION_DOT": 7.115e-05, "MEAN_MOTION_DDOT": 0}, "tle": {"line1": "1 59626U 24081B   25343.46572061  .00007115  00000+0  36910-3 0  9996", "line2": "2 59626  97.5215  58.2191 0005829 307.7092  52.3612 15.16441411 88785"}}, "geometry": {"type": "Point", "coordinates": [-130.68362695633957, -50.24979247596088]}}, {"type": "Feature", "properties": {"norad_id": 60182, "name": "ALOS-4 (DAICHI-4)", "group": "resource", "lat": -67.32811461558053, "lon": 98.06944505172154, "alt_km": 639.2390434231329, "timestamp": "2025-12-09T16:56:36.238086+00:00", "meta": {"OBJECT_NAME": "ALOS-4 (DAICHI-4)", "OBJECT_ID": "2024-123A", "EPOCH": "2025-12-09T12:23:02.184000", "MEAN_MOTION": 14.7947113, "ECCENTRICITY": 0.0001438, "INCLINATION": 97.9226, "RA_OF_ASC_NODE": 78.4091, "ARG_OF_PERICENTER": 102.2481, "MEAN_ANOMALY": 257.8892, "EPHEMERIS_TYPE": 0, "CLASSIFICATION_TYPE": "U", "NORAD_CAT_ID": 60182, "ELEMENT_SET_NO": 999, "REV_AT_EPOCH": 7783, "BSTAR": 0.00048813, "MEAN_MOTION_DOT": 3.596e-05, "MEAN_MOTION_DDOT": 0}, "tle": {"line1": "1 60182U 24123A   25343.51599750  .00003596  00000+0  48813-3 0  9996", "line2": "2 60182  97.9226  78.4091 0001438 102.2481 257.8892 14.79471130 77830"}}, "geometry": {"type": "Point", "coordinates": [98.06944505172154, -67.32811461558053]}}, {"type": "Feature", "properties": {"norad_id": 60452, "name": "LEGION 3", "group": "resource", "lat": -44.05016155320516, "lon": -138.14543641680675, "alt_km": 520.264930834951, "timestamp": "2025-12-09T16:56:36.238098+00:00", "meta": {"OBJECT_NAME": "LEGION 3", "OBJECT_ID": "2024-146A", "EPOCH": "2025-12-09T11:03:30.979008", "MEAN_MOTION": 15.15708093, "ECCENTRICITY": 0.0014518, "INCLINATION": 45.0025, "RA_OF_ASC_NODE": 327.7103, "ARG_OF_PERICENTER": 180.8682, "MEAN_ANOMALY": 179.2173, "EPHEMERIS_TYPE": 0, "CLASSIFICATION_TYPE": "U", "NORAD_CAT_ID": 60452, "ELEMENT_SET_NO": 999, "REV_AT_EPOCH": 7323, "BSTAR": 0.00041993, "MEAN_MOTION_DOT": 7.898e-05, "MEAN_MOTION_DDOT": 0}, "tle": {"line1": "1 60452U 24146A   25343.46077522  .00007898  00000+0  41993-3 0  9994", "line2": "2 60452  45.0025 327.7103 0014518 180.8682 179.2173 15.15708093 73234"}}, "geometry": {"type": "Point", "coordinates": [-138.14543641680675, -44.05016155320516]}}]}